0 DFH-3 1
1 23415U 94080A   13282.03680535  .00000049  00000-0  10000-3 0  7470
2 23415 013.7177 028.7924 0094316 253.7289 105.2370 01.00961367 88922
0 DFH-3 1
1 23415U 94080A   13285.00810370  .00000076  00000-0  10000-3 0  7483
2 23415 013.7219 028.7580 0094322 253.7765 105.1871 01.00961855 88953
0 DFH-3 1
1 23415U 94080A   13287.97935409  .00000095  00000-0  10000-3 0  7494
2 23415 013.7258 028.7234 0094313 253.8586 105.0944 01.00962687 88981
0 DFH-3 1
1 23415U 94080A   13290.95055976  .00000102  00000-0  10000-3 0  7509
2 23415 013.7296 028.6890 0094319 253.9868 104.9506 01.00963811 89017
0 DFH-3 1
1 23415U 94080A   13293.92175896  .00000096  00000-0  10000-3 0  7516
2 23415 013.7332 028.6543 0094289 254.0569 104.8769 01.00965144 89043
